NORAD_CAT_ID,OBJECT_NAME,OBJECT_TYPE,EPOCH,MEAN_MOTION,ECCENTRICITY,INCLINATION,RA_OF_ASC_NODE,ARG_OF_PERICENTER,MEAN_ANOMALY,BSTAR,MEAN_MOTION_DOT,MEAN_MOTION_DDOT,TLE_LINE0,TLE_LINE1,TLE_LINE2,SEMIMAJOR_AXIS,PERIOD,APOGEE,PERIGEE,DECAYED
49167.0,STARLINK-3054,PAYLOAD,2024-02-26 05:25:48,14.98325993,0.0002282,70.0031,6.4659,260.7136,99.3765,-1.4911e-05,-2.71e-06,0.0,0 STARLINK-3054,1 49167U 21082AP  24057.22626069 -.00000271  00000-0 -14911-4 0  9993,2 49167  70.0031   6.4659 0002282 260.7136  99.3765 14.98325993135965,6950.205,96.107,573.656,570.484,0.0
49167.0,STARLINK-3054,PAYLOAD,2024-02-26 23:03:17,14.98331796,0.0002398,70.0032,4.6145,258.8092,101.2798,-0.00024563,-3.022e-05,0.0,0 STARLINK-3054,1 49167U 21082AP  24057.96062413 -.00003022  00000-0 -24563-3 0  9991,2 49167  70.0032   4.6145 0002398 258.8092 101.2798 14.98331796136073,6950.187,96.107,573.719,570.386,0.0
49167.0,STARLINK-3054,PAYLOAD,2024-02-27 03:51:42,14.98330513,0.0002428,70.0028,4.1085,254.2862,105.803,-0.00025141,-3.091e-05,0.0,0 STARLINK-3054,1 49167U 21082AP  24058.16090483 -.00003091  00000-0 -25141-3 0  9991,2 49167  70.0028   4.1085 0002428 254.2862 105.8030 14.98330513136115,6950.191,96.107,573.744,570.369,0.0
49167.0,STARLINK-3054,PAYLOAD,2024-02-27 13:28:29,14.98340339,0.0002928,70.0009,3.0967,270.5071,89.5753,-0.00020572,-2.547e-05,0.0,0 STARLINK-3054,1 49167U 21082AP  24058.56145624 -.00002547  00000-0 -20572-3 0  9991,2 49167  70.0009   3.0967 0002928 270.5071  89.5753 14.98340339136161,6950.161,96.106,574.061,569.991,0.0
49167.0,STARLINK-3054,PAYLOAD,2024-02-27 21:29:10,14.98326245,0.0002507,70.003,2.2569,266.9601,93.1271,6.0161e-05,6.25e-06,0.0,0 STARLINK-3054,1 49167U 21082AP  24058.89525972  .00000625  00000-0  60161-4 0  9997,2 49167  70.0030   2.2569 0002507 266.9601  93.1271 14.98326245136217,6950.205,96.107,573.812,570.327,0.0
49167.0,STARLINK-3054,PAYLOAD,2024-02-28 13:30:31,14.98325045,0.0002248,70.0029,0.5748,271.062,89.0281,7.6168e-05,8.16e-06,0.0,0 STARLINK-3054,1 49167U 21082AP  24059.56286135  .00000816  00000-0  76168-4 0  9993,2 49167  70.0029   0.5748 0002248 271.0620  89.0281 14.98325045136318,6950.208,96.107,573.636,570.511,0.0
49167.0,STARLINK-3054,PAYLOAD,2024-02-28 19:55:03,14.98317884,0.0001972,70.0026,359.8978,259.8839,100.2098,0.00010248,1.13e-05,0.0,0 STARLINK-3054,1 49167U 21082AP  24059.82990532  .00001130  00000-0  10248-3 0  9991,2 49167  70.0026 359.8978 0001972 259.8839 100.2098 14.98317884136368,6950.23,96.108,573.466,570.725,0.0
49167.0,STARLINK-3054,PAYLOAD,2024-02-28 21:31:11,14.9831747,0.0002082,70.0026,359.7289,261.4264,98.6659,0.00011255,1.25e-05,0.0,0 STARLINK-3054,1 49167U 21082AP  24059.89666533  .00001250  00000-0  11255-3 0  9991,2 49167  70.0026 359.7289 0002082 261.4264  98.6659 14.98317470136360,6950.232,96.108,573.544,570.65,0.0
49167.0,STARLINK-3054,PAYLOAD,2024-02-29 13:32:32,14.98310587,0.0002496,70.0019,358.0482,288.2431,71.8456,0.00034512,4.025e-05,0.0,0 STARLINK-3054,1 49167U 21082AP  24060.56426935  .00004025  00000-0  34512-3 0  9991,2 49167  70.0019 358.0482 0002496 288.2431  71.8456 14.98310587136462,6950.253,96.108,573.853,570.383,0.0
49167.0,STARLINK-3054,PAYLOAD,2024-02-29 19:57:04,14.98330914,0.0002582,70.0015,357.375,273.9009,86.1855,-2.1592e-05,-3.51e-06,0.0,0 STARLINK-3054,1 49167U 21082AP  24060.83130324 -.00000351  00000-0 -21592-4 0  9990,2 49167  70.0015 357.3750 0002582 273.9009  86.1855 14.98330914136510,6950.19,96.107,573.85,570.261,0.0
49167.0,STARLINK-3054,PAYLOAD,2024-02-29 21:33:12,14.98331307,0.0002701,70.0008,357.2055,270.8758,89.2092,-1.3261e-05,-2.51e-06,0.0,0 STARLINK-3054,1 49167U 21082AP  24060.89806217 -.00000251  00000-0 -13261-4 0  9990,2 49167  70.0008 357.2055 0002701 270.8758  89.2092 14.98331307136513,6950.189,96.107,573.931,570.177,0.0
49167.0,STARLINK-3054,PAYLOAD,2024-03-01 05:33:52,14.98336281,0.0002366,70.0017,356.3649,267.8783,92.2106,3.6193e-05,3.39e-06,0.0,0 STARLINK-3054,1 49167U 21082AP  24061.23185740  .00000339  00000-0  36193-4 0  9994,2 49167  70.0017 356.3649 0002366 267.8783  92.2106 14.98336281136575,6950.173,96.107,573.683,570.394,0.0
49167.0,STARLINK-3054,PAYLOAD,2024-03-01 19:59:06,14.98264546,0.0002606,70.0015,354.8491,263.5231,96.5632,0.0011709,0.00013882,0.0,0 STARLINK-3054,1 49167U 21082AP  24061.83271042  .00013882  00000-0  11709-2 0  9992,2 49167  70.0015 354.8491 0002606 263.5231  96.5632 14.98264546136664,6950.395,96.111,574.072,570.449,0.0
49167.0,STARLINK-3054,PAYLOAD,2024-03-01 21:35:13,14.98319744,0.0002662,70.0012,354.6809,270.0406,90.0448,0.00021159,2.432e-05,0.0,0 STARLINK-3054,1 49167U 21082AP  24061.89946144  .00002432  00000-0  21159-3 0  9990,2 49167  70.0012 354.6809 0002662 270.0406  90.0448 14.98319744136666,6950.225,96.108,573.94,570.239,0.0
49167.0,STARLINK-3054,PAYLOAD,2024-03-02 03:59:46,14.98266932,0.0002267,70.0014,354.0077,277.6289,82.4613,0.0011989,0.00014217,0.0,0 STARLINK-3054,1 49167U 21082AP  24062.16651190  .00014217  00000-0  11989-2 0  9998,2 49167  70.0014 354.0077 0002267 277.6289  82.4613 14.98266932136717,6950.388,96.111,573.829,570.677,0.0
49167.0,STARLINK-3054,PAYLOAD,2024-03-02 05:35:53,14.98333925,0.0002553,70.0014,353.8393,270.6322,89.4544,8.8742e-05,9.66e-06,0.0,0 STARLINK-3054,1 49167U 21082AP  24062.23325545  .00000966  00000-0  88742-4 0  9997,2 49167  70.0014 353.8393 0002553 270.6322  89.4544 14.98333925136722,6950.181,96.107,573.82,570.271,0.0
49167.0,STARLINK-3054,PAYLOAD,2024-03-02 21:37:14,14.98331552,0.0002413,70.0018,352.1571,275.4996,84.5888,-2.8287e-05,-4.3e-06,0.0,0 STARLINK-3054,1 49167U 21082AP  24062.90085993 -.00000430  00000-0 -28287-4 0  9997,2 49167  70.0018 352.1571 0002413 275.4996  84.5888 14.98331552136812,6950.188,96.107,573.73,570.376,0.0
49167.0,STARLINK-3054,PAYLOAD,2024-03-03 04:01:48,14.98244887,0.0002053,70.0017,351.4839,280.8248,79.268,0.0014327,0.00017005,0.0,0 STARLINK-3054,1 49167U 21082AP  24063.16792002  .00017005  00000-0  14327-2 0  9994,2 49167  70.0017 351.4839 0002053 280.8248  79.2680 14.98244887136860,6950.456,96.112,573.748,570.894,0.0
49167.0,STARLINK-3054,PAYLOAD,2024-03-03 05:37:56,14.98258294,0.0002188,70.0018,351.3157,282.715,77.3764,0.0012462,0.0001478,0.0,0 STARLINK-3054,1 49167U 21082AP  24063.23467850  .00014780  00000-0  12462-2 0  9997,2 49167  70.0018 351.3157 0002188 282.7150  77.3764 14.98258294136875,6950.415,96.112,573.8,570.759,0.0
49167.0,STARLINK-3054,PAYLOAD,2024-03-03 20:03:06,14.98333083,0.0002427,70.0017,349.802,257.7635,102.3253,2.012e-06,-6.9e-07,0.0,0 STARLINK-3054,1 49167U 21082AP  24063.83549577 -.00000069  00000-0  20120-5 0  9999,2 49167  70.0017 349.8020 0002427 257.7635 102.3253 14.98333083136963,6950.183,96.107,573.735,570.362,0.0
49167.0,STARLINK-3054,PAYLOAD,2024-03-03 21:39:14,14.9833422,0.0002429,70.0018,349.6334,257.4884,102.6003,1.7513e-05,1.16e-06,0.0,0 STARLINK-3054,1 49167U 21082AP  24063.90225475  .00000116  00000-0  17513-4 0  9998,2 49167  70.0018 349.6334 0002429 257.4884 102.6003 14.98334220136965,6950.18,96.107,573.733,570.357,0.0
49167.0,STARLINK-3054,PAYLOAD,2024-03-04 04:03:46,14.98338754,0.0002339,70.002,348.9606,252.8094,107.2809,9.0112e-05,9.83e-06,0.0,0 STARLINK-3054,1 49167U 21082AP  24064.16928862  .00000983  00000-0  90112-4 0  9995,2 49167  70.0020 348.9606 0002339 252.8094 107.2809 14.98338754137012,6950.166,96.106,573.656,570.405,0.0
49167.0,STARLINK-3054,PAYLOAD,2024-03-04 12:04:27,14.98333704,0.0001692,70.0036,348.1136,274.1146,85.9819,1.5498e-05,9.2e-07,0.0,0 STARLINK-3054,1 49167U 21082AP  24064.50309467  .00000092  00000-0  15498-4 0  9992,2 49167  70.0036 348.1136 0001692 274.1146  85.9819 14.98333704137052,6950.181,96.107,573.222,570.87,0.0
49167.0,STARLINK-3054,PAYLOAD,2024-03-04 20:05:08,14.98325738,0.0002387,70.0021,347.2769,268.8279,91.2607,-8.9595e-06,-2e-06,0.0,0 STARLINK-3054,1 49167U 21082AP  24064.83689816 -.00000200  00000-0 -89595-5 0  9990,2 49167  70.0021 347.2769 0002387 268.8279  91.2607 14.98325738137117,6950.206,96.107,573.73,570.412,0.0
49167.0,STARLINK-3054,PAYLOAD,2024-03-04 21:41:16,14.98324708,0.0002407,70.0022,347.1088,268.4687,91.6197,-1.7261e-05,-2.99e-06,0.0,0 STARLINK-3054,1 49167U 21082AP  24064.90365909 -.00000299  00000-0 -17261-4 0  9990,2 49167  70.0022 347.1088 0002407 268.4687  91.6197 14.98324708137117,6950.209,96.107,573.747,570.401,0.0
49167.0,STARLINK-3054,PAYLOAD,2024-03-05 04:05:48,14.98326882,0.0002485,70.0018,346.4343,268.532,91.5554,1.2317e-06,-7.8e-07,0.0,0 STARLINK-3054,1 49167U 21082AP  24065.17069755 -.00000078  00000-0  12317-5 0  9992,2 49167  70.0018 346.4343 0002485 268.5320  91.5554 14.98326882137154,6950.203,96.107,573.795,570.34,0.0
49167.0,STARLINK-3054,PAYLOAD,2024-03-05 20:07:09,14.98322245,0.0003236,70.0014,344.7491,269.6618,90.417,5.4462e-06,-2.8e-07,0.0,0 STARLINK-3054,1 49167U 21082AP  24065.83829924 -.00000028  00000-0  54462-5 0  9999,2 49167  70.0014 344.7491 0003236 269.6618  90.4170 14.98322245137265,6950.217,96.107,574.331,569.833,0.0
49167.0,STARLINK-3054,PAYLOAD,2024-03-06 04:07:49,14.98330057,0.0002536,70.0017,343.9089,263.3759,96.7111,-3.5667e-05,-5.18e-06,0.0,0 STARLINK-3054,1 49167U 21082AP  24066.17209779 -.00000518  00000-0 -35667-4 0  9997,2 49167  70.0017 343.9089 0002536 263.3759  96.7111 14.98330057137311,6950.193,96.107,573.82,570.295,0.0
49167.0,STARLINK-3054,PAYLOAD,2024-03-07 04:09:50,14.98328733,0.0002692,70.0014,341.3842,271.6964,88.3886,8.9586e-05,9.76e-06,0.0,0 STARLINK-3054,1 49167U 21082AP  24067.17349630  .00000976  00000-0  89586-4 0  9994,2 49167  70.0014 341.3842 0002692 271.6964  88.3886 14.98328733137460,6950.197,96.107,573.933,570.191,0.0
49167.0,STARLINK-3054,PAYLOAD,2024-03-08 02:35:43,14.9832764,0.0002789,70.001,339.0288,260.7408,99.3436,5.6199e-05,5.78e-06,0.0,0 STARLINK-3054,1 49167U 21082AP  24068.10814787  .00000578  00000-0  56199-4 0  9990,2 49167  70.0010 339.0288 0002789 260.7408  99.3436 14.98327640137608,6950.2,96.107,574.004,570.127,0.0
